[{"OBJECT_NAME":"CYGFM02","OBJECT_ID":"2016-078C","EPOCH":"2026-03-09T15:36:50.817024","MEAN_MOTION":15.57922145,"ECCENTRICITY":0.00067337,"INCLINATION":34.9409,"RA_OF_ASC_NODE":166.5135,"ARG_OF_PERICENTER":321.9691,"MEAN_ANOMALY":38.0558,"EPHEMERIS_TYPE":0,"CLASSIFICATION_TYPE":"U","NORAD_CAT_ID":41886,"ELEMENT_SET_NO":999,"REV_AT_EPOCH":51360,"BSTAR":0.00045552305,"MEAN_MOTION_DOT":0.00035326,"MEAN_MOTION_DDOT":0},{"OBJECT_NAME":"STARLINK-36582","OBJECT_ID":"2026-018L","EPOCH":"2026-03-09T22:00:01.999584","MEAN_MOTION":15.71591919,"ECCENTRICITY":0.00014928,"INCLINATION":97.2852,"RA_OF_ASC_NODE":134.7477,"ARG_OF_PERICENTER":75.3652,"MEAN_ANOMALY":305.3399,"EPHEMERIS_TYPE":0,"CLASSIFICATION_TYPE":"U","NORAD_CAT_ID":67599,"ELEMENT_SET_NO":999,"REV_AT_EPOCH":604,"BSTAR":-0.01742385,"MEAN_MOTION_DOT":-0.01973452,"MEAN_MOTION_DDOT":0}]
